HAWK-9C                 
1 59448U 24066G   24127.15287861  .00001942  00000+0  20835-3 0  9998
2 59448  45.6004 290.3885 0006601 260.0535  99.9598 14.92310891  4191
HAWK-8C                 
1 59449U 24066H   24126.88522127  .00001774  00000+0  19313-3 0  9997
2 59449  45.6097 291.7590 0005047 273.9363  86.0939 14.92114281  4154
HAWK-9B                 
1 59450U 24066J   24127.15261441  .00002093  00000+0  22308-3 0  9992
2 59450  45.6248 290.4120 0005810 261.4096  98.6125 14.92292843  4193
CENTAURI-6              
1 59451U 24066K   24126.94288692  .00005756  00000+0  56930-3 0  9993
2 59451  45.6058 291.3464 0005963 286.8657  73.1567 14.92791772  4178
425SAT-1                
1 59452U 24066L   24127.07841528  .00007960  00000+0  65003-3 0  9992
2 59452  45.4140 288.1022 0005437 159.3859 200.7239 14.99894182  4201
STARLINK-31617          
1 59455U 24068A   24127.25001157 -.02150545  00000+0 -50852-1 0  9999
2 59455  42.9996 264.1232 0001435 263.4485  35.1466 15.44744619  5313
STARLINK-31622          
1 59456U 24068B   24126.67825003 -.00001090  00000+0 -12761-4 0  9997
2 59456  42.9993 267.4244 0001570 278.0722  81.9960 15.50577996  5223
STARLINK-31319          
1 59457U 24068C   24127.25001157 -.00070483  00000+0 -16928-2 0  9998
2 59457  42.9995 264.3188 0001575 276.3419 301.3904 15.40749550  5311
STARLINK-31625          
1 59458U 24068D   24126.67790852  .00012505  00000+0  21853-3 0  9994
2 59458  43.0003 267.4209 0002673 239.3230 120.7367 15.50592286  5221
STARLINK-31631          
1 59459U 24068E   24127.00002315  .00034476  00000+0  82973-3 0  9994
2 59459  42.9999 265.9099 0001077 254.4364 312.9406 15.40668418  5271
STARLINK-31620          
1 59460U 24068F   24127.25001157 -.00004451  00000+0 -99351-4 0  9997
2 59460  42.9997 264.2276 0002021 265.0127 350.0855 15.40693090  5315
STARLINK-31482          
1 59461U 24068G   24127.25001157 -.01686441  00000+0 -16776-1 0  9991
2 59461  42.9993 260.5684 0001525 271.9013  17.0577 15.67989397  5343
STARLINK-31511          
1 59462U 24068H   24126.67623273 -.00044631  00000+0 -76267-3 0  9997
2 59462  43.0003 267.4084 0001906 293.0420  67.0239 15.50452797  5226
STARLINK-31364          
1 59463U 24068J   24126.91667824  .00159103  00000+0  37487-2 0  9994
2 59463  42.9997 266.3002 0001473 256.1165 245.7543 15.40606606  5323
STARLINK-31597          
1 59464U 24068K   24126.67585296  .00010452  00000+0  18372-3 0  9996
2 59464  42.9961 267.4053 0001082 302.9474  57.1282 15.50582055  5172
STARLINK-31621          
1 59465U 24068L   24126.61108702  .00006607  00000+0  11827-3 0  9999
2 59465  42.9990 267.7782 0001517 270.4486  89.6200 15.50597809  5210
STARLINK-31462          
1 59466U 24068M   24126.91667824  .00131239  00000+0  31048-2 0  9994
2 59466  43.0001 265.5897 0002446 267.4827 160.5448 15.40605930  5325
STARLINK-31592          
1 59467U 24068N   24126.67482000  .00004226  00000+0  77819-4 0  9992
2 59467  42.9969 267.3975 0000964 331.9899  28.0910 15.50576908  5227
STARLINK-31267          
1 59468U 24068P   24127.25001157  .00025962  00000+0  62700-3 0  9990
2 59468  42.9998 264.1946 0001607 238.0187  29.5168 15.40682341  5314
STARLINK-31381          
1 59469U 24068Q   24126.91667824  .00013213  00000+0  32301-3 0  9992
2 59469  42.9997 266.0865 0002310 265.1741 323.7576 15.40699488  5349
STARLINK-31546          
1 59470U 24068R   24126.91667824  .00136137  00000+0  32174-2 0  9992
2 59470  42.9997 266.2671 0001332 288.6932 225.6341 15.40615664  5325
STARLINK-31575          
1 59471U 24068S   24126.91667824  .00090966  00000+0  21623-2 0  9999
2 59471  42.9997 266.1765 0002121 268.4594 283.1698 15.40653366  5321
STARLINK-31375          
1 59472U 24068T   24126.67274693  .00009364  00000+0  16512-3 0  9995
2 59472  42.9991 267.3770 0002395 274.9600  85.0986 15.50600594  5222
STARLINK-31610          
1 59473U 24068U   24126.60868049  .00003604  00000+0  67214-4 0  9990
2 59473  42.9997 267.7593 0001695 255.2487 104.8186 15.50585678  5219
STARLINK-31581          
1 59474U 24068V   24127.25001157  .00010982  00000+0  27104-3 0  9992
2 59474  42.9998 264.1325 0001881 245.8594  46.8306 15.40558484  5309
STARLINK-31566          
1 59475U 24068W   24126.60764900  .00007071  00000+0  12619-3 0  9993
2 59475  43.0002 267.7505 0002007 280.7521  79.3113 15.50589427  5215
STARLINK-31515          
1 59476U 24068X   24126.60730567 -.00001060  00000+0 -12257-4 0  9999
2 59476  42.9992 267.7466 0001373 265.6592  94.4112 15.50580677  5218
STARLINK-31531          
1 59477U 24068Y   24126.67137448  .00010394  00000+0  18264-3 0  9997
2 59477  43.0008 267.3694 0001637 261.5613  98.5062 15.50596392  5221
DUMMY SAT 3             
1 59479U 24069A   24126.44502879 -.00000211  00000+0  00000+0 0  9992
2 59479   0.0960  77.0613 0048558 121.7351 161.0252  0.98609049   186
WSF-M                   
1 59481U 24070A   24126.94602263  .00000098  00000+0  66114-4 0  9995
2 59481  98.7193 134.3831 0005487  40.0697 320.0884 14.20468294  3456
MICROORBITER-1          
1 59483U 98067WF  24126.82208601  .00070976  00000+0  10155-2 0  9993
2 59483  51.6351 164.9619 0002813  88.6758 271.4555 15.55550654  3861
STARLINK-31753          
1 59484U 24071A   24127.16667824 -.02148291  00000+0 -50198-1 0  9992
2 59484  42.9997 223.3314 0001384 276.2611 166.9895 15.45085581  4797
STARLINK-31653          
1 59485U 24071B   24127.25001157 -.00000607  00000+0 -49138-5 0  9996
2 59485  42.9995 222.8267 0001843 271.4876 284.5154 15.48911228  4803
STARLINK-31733          
1 59486U 24071C   24127.16667824  .00002803  00000+0  56730-4 0  9999
2 59486  42.9995 223.3067 0001888 249.8460 202.8443 15.48909763  4798
STARLINK-31657          
1 59487U 24071D   24127.16667824 -.01947870  00000+0 -38726-1 0  9997
2 59487  42.9997 223.2937 0001334 256.7947 201.5897 15.49345255  4845
STARLINK-31754          
1 59488U 24071E   24127.16667824  .00002862  00000+0  57799-4 0  9992
2 59488  42.9997 223.3027 0002113 253.9072 200.7022 15.48908127  4844
STARLINK-31638          
1 59489U 24071F   24127.25001157  .00004907  00000+0  94727-4 0  9998
2 59489  42.9994 222.8121 0002322 259.5801 302.1714 15.48909568  4806
STARLINK-31670          
1 59490U 24071G   24127.16667824 -.02144678  00000+0 -44245-1 0  9990
2 59490  42.9998 223.5553 0001383 267.0254  84.7935 15.48636639  4782
STARLINK-31712          
1 59491U 24071H   24127.16667824  .00007977  00000+0  15016-3 0  9993
2 59491  42.9997 223.2879 0002124 252.9923 207.3616 15.48908334  4840
STARLINK-31684          
1 59492U 24071J   24127.16667824  .00035316  00000+0  64212-3 0  9994
2 59492  42.9997 223.2783 0001914 259.1058 205.0851 15.48894281  4794
STARLINK-31678          
1 59493U 24071K   24127.16667824 -.00019810  00000+0 -35298-3 0  9990
2 59493  42.9997 223.2732 0001532 263.9237 202.1803 15.48918039  4857
STARLINK-31744          
1 59494U 24071L   24126.91667824 -.00042070  00000+0 -75809-3 0  9999
2 59494  42.9998 224.7274 0002043 267.8234 244.5004 15.48935151  4794
STARLINK-31719          
1 59495U 24071M   24127.25001157 -.00148775  00000+0 -27288-2 0  9995
2 59495  42.9997 222.7786 0002387 231.9220 343.2168 15.48979774  4852
STARLINK-31728          
1 59496U 24071N   24127.16667824 -.02211797  00000+0 -45104-1 0  9998
2 59496  42.9997 223.2543 0001463 248.7697 224.9824 15.49077611  4795
STARLINK-31720          
1 59497U 24071P   24126.91667824 -.00023759  00000+0 -42464-3 0  9996
2 59497  42.9999 224.7175 0001532 271.2141 244.9475 15.48926253  4795
STARLINK-31731          
1 59498U 24071Q   24127.16667824  .00006448  00000+0  12256-3 0  9995
2 59498  42.9996 223.2494 0001705 250.7341 224.9472 15.48909719  4846
STARLINK-31742          
1 59499U 24071R   24127.16667824  .00279460  00000+0  49041-2 0  9993
2 59499  42.9996 223.2437 0003112 254.9554 222.5422 15.48771220  4797
STARLINK-31512          
1 59500U 24071S   24127.16667824  .00003593  00000+0  70991-4 0  9998
2 59500  42.9996 223.2396 0002034 243.0813 236.4302 15.48910985  4843
STARLINK-31458          
1 59501U 24071T   24127.16667824  .00018482  00000+0  33950-3 0  9995
2 59501  42.9997 223.2345 0001889 248.8783 232.5481 15.48906128  4798
STARLINK-31357          
1 59502U 24071U   24126.91667824 -.00017845  00000+0 -31719-3 0  9993
2 59502  42.9998 224.6886 0001838 259.7786 267.8752 15.48925912  4843
STARLINK-31508          
1 59503U 24071V   24127.16667824  .00069083  00000+0  12452-2 0  9993
2 59503  42.9996 223.2256 0002160 255.8114 229.4421 15.48886824  4798
STARLINK-31535          
1 59504U 24071W   24127.16667824  .00179228  00000+0  31815-2 0  9991
2 59504  42.9996 223.2207 0002066 241.8812 245.2040 15.48833680  4795
STARLINK-31533          
1 59505U 24071X   24127.16667824  .00012289  00000+0  22796-3 0  9994
2 59505  42.9996 223.2158 0001786 258.1020 230.9929 15.48905153  4793
STARLINK-31524          
1 59506U 24071Y   24127.16667824  .00020948  00000+0  38394-3 0  9997
2 59506  42.9996 223.2109 0002001 242.7919 248.2191 15.48901418  4790
CURTIS                  
1 59507U 98067WG  24126.82778293  .00060588  00000+0  89564-3 0  9998
2 59507  51.6347 164.9994 0001636  93.7959 266.3219 15.54730055  3876
KASHIWA                 
1 59508U 98067WH  24126.82017365  .00079356  00000+0  11197-2 0  9994
2 59508  51.6345 164.9482 0002842  85.2010 274.9306 15.55880395  3877
2024-072A               
1 59510U 24072A   24124.80464934  .00013368  00000+0  57671-3 0  9995
2 59510  97.4865 199.9243 0000118  42.5674 317.5572 15.22660422  2839
STARLINK-31635          
1 59511U 24073A   24127.25001157 -.01749667  00000+0 -20990-1 0  9996
2 59511  43.0003 192.6527 0001141 273.0826 200.3914 15.62977132  4129
STARLINK-31650          
1 59512U 24073B   24127.25001157 -.01749132  00000+0 -20987-1 0  9990
2 59512  43.0005 192.6476 0001029 274.4094 201.0254 15.62973120  4119
